[{"OBJECT_NAME":"UNKNOWN","OBJECT_ID":"","EPOCH":"2026-03-06T03:18:41.913504","MEAN_MOTION":9.31972493,"ECCENTRICITY":0.2552724,"INCLINATION":66.0838,"RA_OF_ASC_NODE":341.7627,"ARG_OF_PERICENTER":145.712,"MEAN_ANOMALY":233.8673,"EPHEMERIS_TYPE":0,"CLASSIFICATION_TYPE":"U","NORAD_CAT_ID":81036,"ELEMENT_SET_NO":999,"REV_AT_EPOCH":2950,"BSTAR":0.023377,"MEAN_MOTION_DOT":8.663e-5,"MEAN_MOTION_DDOT":0},{"OBJECT_NAME":"UNKNOWN","OBJECT_ID":"","EPOCH":"2026-03-05T17:03:29.003904","MEAN_MOTION":13.84140309,"ECCENTRICITY":0.0562332,"INCLINATION":65.7701,"RA_OF_ASC_NODE":179.5828,"ARG_OF_PERICENTER":267.917,"MEAN_ANOMALY":85.7441,"EPHEMERIS_TYPE":0,"CLASSIFICATION_TYPE":"U","NORAD_CAT_ID":81052,"ELEMENT_SET_NO":999,"REV_AT_EPOCH":61179,"BSTAR":0.0023727,"MEAN_MOTION_DOT":9.174e-5,"MEAN_MOTION_DDOT":0},{"OBJECT_NAME":"UNKNOWN","OBJECT_ID":"","EPOCH":"2026-03-01T05:07:33.540960","MEAN_MOTION":13.61107376,"ECCENTRICITY":0.0061934,"INCLINATION":100.3842,"RA_OF_ASC_NODE":331.1182,"ARG_OF_PERICENTER":212.0506,"MEAN_ANOMALY":147.6859,"EPHEMERIS_TYPE":0,"CLASSIFICATION_TYPE":"U","NORAD_CAT_ID":81069,"ELEMENT_SET_NO":999,"REV_AT_EPOCH":52660,"BSTAR":0.0043876,"MEAN_MOTION_DOT":3.327e-5,"MEAN_MOTION_DDOT":0},{"OBJECT_NAME":"UNKNOWN","OBJECT_ID":"","EPOCH":"2026-02-17T06:30:23.802048","MEAN_MOTION":11.22475388,"ECCENTRICITY":0.0191832,"INCLINATION":65.1105,"RA_OF_ASC_NODE":153.846,"ARG_OF_PERICENTER":348.1361,"MEAN_ANOMALY":40.1331,"EPHEMERIS_TYPE":0,"CLASSIFICATION_TYPE":"U","NORAD_CAT_ID":81078,"ELEMENT_SET_NO":999,"REV_AT_EPOCH":50209,"BSTAR":0.012039,"MEAN_MOTION_DOT":3.65e-6,"MEAN_MOTION_DDOT":0},{"OBJECT_NAME":"UNKNOWN","OBJECT_ID":"","EPOCH":"2026-03-06T14:43:32.884320","MEAN_MOTION":7.58534856,"ECCENTRICITY":0.3847396,"INCLINATION":62.8818,"RA_OF_ASC_NODE":300.2744,"ARG_OF_PERICENTER":0.5468,"MEAN_ANOMALY":359.81,"EPHEMERIS_TYPE":0,"CLASSIFICATION_TYPE":"U","NORAD_CAT_ID":81111,"ELEMENT_SET_NO":999,"REV_AT_EPOCH":27829,"BSTAR":0.0030384,"MEAN_MOTION_DOT":0.00015112,"MEAN_MOTION_DDOT":0},{"OBJECT_NAME":"UNKNOWN","OBJECT_ID":"","EPOCH":"2026-03-02T01:09:55.267776","MEAN_MOTION":13.81794289,"ECCENTRICITY":0.0004185,"INCLINATION":99.9641,"RA_OF_ASC_NODE":152.0911,"ARG_OF_PERICENTER":201.2439,"MEAN_ANOMALY":158.8539,"EPHEMERIS_TYPE":0,"CLASSIFICATION_TYPE":"U","NORAD_CAT_ID":81123,"ELEMENT_SET_NO":999,"REV_AT_EPOCH":61723,"BSTAR":0.001132,"MEAN_MOTION_DOT":1.163e-5,"MEAN_MOTION_DDOT":0},{"OBJECT_NAME":"UNKNOWN","OBJECT_ID":"","EPOCH":"2026-03-05T06:39:03.680352","MEAN_MOTION":12.93017594,"ECCENTRICITY":0.0024566,"INCLINATION":90.2548,"RA_OF_ASC_NODE":5.8953,"ARG_OF_PERICENTER":167.7731,"MEAN_ANOMALY":192.3989,"EPHEMERIS_TYPE":0,"CLASSIFICATION_TYPE":"U","NORAD_CAT_ID":81134,"ELEMENT_SET_NO":999,"REV_AT_EPOCH":47327,"BSTAR":0.001301,"MEAN_MOTION_DOT":3.62e-6,"MEAN_MOTION_DDOT":0},{"OBJECT_NAME":"UNKNOWN","OBJECT_ID":"","EPOCH":"2026-02-17T19:40:08.722560","MEAN_MOTION":13.7573535,"ECCENTRICITY":0.0059845,"INCLINATION":100.395,"RA_OF_ASC_NODE":261.9225,"ARG_OF_PERICENTER":108.2143,"MEAN_ANOMALY":252.5529,"EPHEMERIS_TYPE":0,"CLASSIFICATION_TYPE":"U","NORAD_CAT_ID":81161,"ELEMENT_SET_NO":999,"REV_AT_EPOCH":56535,"BSTAR":0.00071615,"MEAN_MOTION_DOT":6.5e-6,"MEAN_MOTION_DDOT":0},{"OBJECT_NAME":"UNKNOWN","OBJECT_ID":"","EPOCH":"2026-03-06T09:49:41.217312","MEAN_MOTION":13.81884643,"ECCENTRICITY":0.0021691,"INCLINATION":82.925,"RA_OF_ASC_NODE":303.2965,"ARG_OF_PERICENTER":343.1433,"MEAN_ANOMALY":16.9004,"EPHEMERIS_TYPE":0,"CLASSIFICATION_TYPE":"U","NORAD_CAT_ID":81219,"ELEMENT_SET_NO":999,"REV_AT_EPOCH":61907,"BSTAR":0.00060648,"MEAN_MOTION_DOT":6.66e-6,"MEAN_MOTION_DDOT":0},{"OBJECT_NAME":"UNKNOWN","OBJECT_ID":"","EPOCH":"2026-03-01T10:34:57.778464","MEAN_MOTION":14.42030798,"ECCENTRICITY":0.0064872,"INCLINATION":70.5185,"RA_OF_ASC_NODE":99.955,"ARG_OF_PERICENTER":247.2635,"MEAN_ANOMALY":112.1634,"EPHEMERIS_TYPE":0,"CLASSIFICATION_TYPE":"U","NORAD_CAT_ID":81228,"ELEMENT_SET_NO":999,"REV_AT_EPOCH":63743,"BSTAR":0.002107,"MEAN_MOTION_DOT":7.049e-5,"MEAN_MOTION_DDOT":0},{"OBJECT_NAME":"UNKNOWN","OBJECT_ID":"","EPOCH":"2026-03-06T04:15:07.843968","MEAN_MOTION":14.02197482,"ECCENTRICITY":0.007538,"INCLINATION":100.381,"RA_OF_ASC_NODE":143.7237,"ARG_OF_PERICENTER":209.304,"MEAN_ANOMALY":150.3883,"EPHEMERIS_TYPE":0,"CLASSIFICATION_TYPE":"U","NORAD_CAT_ID":81254,"ELEMENT_SET_NO":999,"REV_AT_EPOCH":62458,"BSTAR":0.0023499,"MEAN_MOTION_DOT":3.633e-5,"MEAN_MOTION_DDOT":0},{"OBJECT_NAME":"UNKNOWN","OBJECT_ID":"","EPOCH":"2026-03-06T14:57:27.288000","MEAN_MOTION":14.20189676,"ECCENTRICITY":0.0207967,"INCLINATION":98.1157,"RA_OF_ASC_NODE":123.2845,"ARG_OF_PERICENTER":139.0602,"MEAN_ANOMALY":222.6404,"EPHEMERIS_TYPE":0,"CLASSIFICATION_TYPE":"U","NORAD_CAT_ID":81279,"ELEMENT_SET_NO":999,"REV_AT_EPOCH":47450,"BSTAR":0.00063694,"MEAN_MOTION_DOT":1.65e-5,"MEAN_MOTION_DDOT":0},{"OBJECT_NAME":"UNKNOWN","OBJECT_ID":"","EPOCH":"2026-03-04T12:33:40.529664","MEAN_MOTION":13.76763842,"ECCENTRICITY":0.008798,"INCLINATION":66.7558,"RA_OF_ASC_NODE":100.5223,"ARG_OF_PERICENTER":179.7733,"MEAN_ANOMALY":329.6804,"EPHEMERIS_TYPE":0,"CLASSIFICATION_TYPE":"U","NORAD_CAT_ID":81301,"ELEMENT_SET_NO":999,"REV_AT_EPOCH":61761,"BSTAR":0.00031037,"MEAN_MOTION_DOT":2.4e-6,"MEAN_MOTION_DDOT":0},{"OBJECT_NAME":"UNKNOWN","OBJECT_ID":"","EPOCH":"2026-03-04T03:32:01.407264","MEAN_MOTION":14.56674437,"ECCENTRICITY":0.0130281,"INCLINATION":98.7174,"RA_OF_ASC_NODE":129.2181,"ARG_OF_PERICENTER":235.4996,"MEAN_ANOMALY":152.5032,"EPHEMERIS_TYPE":0,"CLASSIFICATION_TYPE":"U","NORAD_CAT_ID":81311,"ELEMENT_SET_NO":999,"REV_AT_EPOCH":65144,"BSTAR":0.00019641,"MEAN_MOTION_DOT":9.25e-6,"MEAN_MOTION_DDOT":0},{"OBJECT_NAME":"UNKNOWN","OBJECT_ID":"","EPOCH":"2026-03-05T02:29:26.547072","MEAN_MOTION":13.38049416,"ECCENTRICITY":0.0215959,"INCLINATION":67.1414,"RA_OF_ASC_NODE":355.2665,"ARG_OF_PERICENTER":336.5479,"MEAN_ANOMALY":43.5684,"EPHEMERIS_TYPE":0,"CLASSIFICATION_TYPE":"U","NORAD_CAT_ID":81317,"ELEMENT_SET_NO":999,"REV_AT_EPOCH":59965,"BSTAR":0.00032803,"MEAN_MOTION_DOT":1.34e-6,"MEAN_MOTION_DDOT":0},{"OBJECT_NAME":"UNKNOWN","OBJECT_ID":"","EPOCH":"2026-02-26T02:14:50.940960","MEAN_MOTION":13.22662933,"ECCENTRICITY":0.0835036,"INCLINATION":65.8188,"RA_OF_ASC_NODE":317.7488,"ARG_OF_PERICENTER":355.8421,"MEAN_ANOMALY":3.5955,"EPHEMERIS_TYPE":0,"CLASSIFICATION_TYPE":"U","NORAD_CAT_ID":81329,"ELEMENT_SET_NO":999,"REV_AT_EPOCH":58804,"BSTAR":0.0009612,"MEAN_MOTION_DOT":2.7e-5,"MEAN_MOTION_DDOT":0},{"OBJECT_NAME":"UNKNOWN","OBJECT_ID":"","EPOCH":"2026-03-06T05:51:48.442752","MEAN_MOTION":15.05180963,"ECCENTRICITY":0.0007436,"INCLINATION":85.8743,"RA_OF_ASC_NODE":154.7026,"ARG_OF_PERICENTER":334.1368,"MEAN_ANOMALY":25.9493,"EPHEMERIS_TYPE":0,"CLASSIFICATION_TYPE":"U","NORAD_CAT_ID":81343,"ELEMENT_SET_NO":999,"REV_AT_EPOCH":46687,"BSTAR":0.00056468,"MEAN_MOTION_DOT":8.085e-5,"MEAN_MOTION_DDOT":0}]
