UNKNOWN                 
1 81036U          26065.13798511  .00008663  00000+0  23377-1 0  9997
2 81036  66.0838 341.7627 2552724 145.7120 233.8673  9.31972493 29503
UNKNOWN                 
1 81052U          26064.71075236  .00009174  00000+0  23727-2 0  9998
2 81052  65.7701 179.5828 0562332 267.9170  85.7441 13.84140309611793
UNKNOWN                 
1 81069U          26060.21358265  .00003327  00000+0  43876-2 0  9994
2 81069 100.3842 331.1182 0061934 212.0506 147.6859 13.61107376526606
UNKNOWN                 
1 81078U          26048.27110882  .00000365  00000+0  12039-1 0  9992
2 81078  65.1105 153.8460 0191832 348.1361  40.1331 11.22475388502090
UNKNOWN                 
1 81111U          26065.61357505  .00015112  00000+0  30384-2 0  9992
2 81111  62.8818 300.2744 3847396   0.5468 359.8100  7.58534856278295
UNKNOWN                 
1 81123U          26061.04855634  .00001163  00000+0  11320-2 0  9994
2 81123  99.9641 152.0911 0004185 201.2439 158.8539 13.81794289617233
UNKNOWN                 
1 81134U          26064.27712593  .00000362  00000+0  13010-2 0  9998
2 81134  90.2548   5.8953 0024566 167.7731 192.3989 12.93017594473277
UNKNOWN                 
1 81161U          26048.81954540  .00000650  00000+0  71615-3 0  9996
2 81161 100.3950 261.9225 0059845 108.2143 252.5529 13.75735350565357
UNKNOWN                 
1 81219U          26065.40950483  .00000666  00000+0  60648-3 0  9997
2 81219  82.9250 303.2965 0021691 343.1433  16.9004 13.81884643619076
UNKNOWN                 
1 81228U          26060.44094651  .00007049  00000+0  21070-2 0  9999
2 81228  70.5185  99.9550 0064872 247.2635 112.1634 14.42030798637431
UNKNOWN                 
1 81254U          26065.17717412  .00003633  00000+0  23499-2 0  9992
2 81254 100.3810 143.7237 0075380 209.3040 150.3883 14.02197482624584
UNKNOWN                 
1 81279U          26065.62323250  .00001650  00000+0  63694-3 0  9991
2 81279  98.1157 123.2845 0207967 139.0602 222.6404 14.20189676474501
UNKNOWN                 
1 81301U          26063.52338576  .00000240  00000+0  31037-3 0  9991
2 81301  66.7558 100.5223 0087980 179.7733 329.6804 13.76763842617614
UNKNOWN                 
1 81311U          26063.14723851  .00000925  00000+0  19641-3 0  9991
2 81311  98.7174 129.2181 0130281 235.4996 152.5032 14.56674437651444
UNKNOWN                 
1 81317U          26064.10377948  .00000134  00000+0  32803-3 0  9993
2 81317  67.1414 355.2665 0215959 336.5479  43.5684 13.38049416599658
UNKNOWN                 
1 81329U          26057.09364515  .00002700  00000+0  96120-3 0  9995
2 81329  65.8188 317.7488 0835036 355.8421   3.5955 13.22662933588041
UNKNOWN                 
1 81343U          26065.24431068  .00008085  00000+0  56468-3 0  9998
2 81343  85.8743 154.7026 0007436 334.1368  25.9493 15.05180963466870
